{
    "links": {
        "self": "http://www.neowsapp.com/rest/v1/neo/3856714?api_key=iIulBulltgU6a56xZRHN4H3l9WmuAYTsLGpBGhQ2"
    },
    "id": "3856714",
    "neo_reference_id": "3856714",
    "name": "(2019 SM4)",
    "designation": "2019 SM4",
    "nasa_jpl_url": "http://ssd.jpl.nasa.gov/sbdb.cgi?sstr=3856714",
    "absolute_magnitude_h": 23.5,
    "estimated_diameter": {
        "kilometers": {
            "estimated_diameter_min": 0.0530340723,
            "estimated_diameter_max": 0.1185877909
        },
        "meters": {
            "estimated_diameter_min": 53.0340723319,
            "estimated_diameter_max": 118.5877908577
        },
        "miles": {
            "estimated_diameter_min": 0.0329538346,
            "estimated_diameter_max": 0.0736870142
        },
        "feet": {
            "estimated_diameter_min": 173.9963058693,
            "estimated_diameter_max": 389.0675677576
        }
    },
    "is_potentially_hazardous_asteroid": false,
    "close_approach_data": [
        {
            "close_approach_date": "2019-10-02",
            "close_approach_date_full": "2019-Oct-02 03:49",
            "epoch_date_close_approach": 1569988140000,
            "relative_velocity": {
                "kilometers_per_second": "13.6089544007",
                "kilometers_per_hour": "48992.2358424034",
                "miles_per_hour": "30441.8700988534"
            },
            "miss_distance": {
                "astronomical": "0.0536846016",
                "lunar": "20.8833100224",
                "kilometers": "8031102.051158592",
                "miles": "4990295.4115168896"
            },
            "orbiting_body": "Earth"
        },
        {
            "close_approach_date": "2020-02-03",
            "close_approach_date_full": "2020-Feb-03 10:48",
            "epoch_date_close_approach": 1580726880000,
            "relative_velocity": {
                "kilometers_per_second": "7.0028134651",
                "kilometers_per_hour": "25210.1284745329",
                "miles_per_hour": "15664.5934401897"
            },
            "miss_distance": {
                "astronomical": "0.4961134997",
                "lunar": "192.9881513833",
                "kilometers": "74217522.833365639",
                "miles": "46116630.2320942582"
            },
            "orbiting_body": "Earth"
        },
        {
            "close_approach_date": "2180-09-21",
            "close_approach_date_full": "2180-Sep-21 14:13",
            "epoch_date_close_approach": 6649827180000,
            "relative_velocity": {
                "kilometers_per_second": "18.0696045124",
                "kilometers_per_hour": "65050.5762447196",
                "miles_per_hour": "40419.898333837"
            },
            "miss_distance": {
                "astronomical": "0.225624112",
                "lunar": "87.767779568",
                "kilometers": "33752886.57584144",
                "miles": "20973071.183994272"
            },
            "orbiting_body": "Earth"
        }
    ],
    "orbital_data": {
        "orbit_id": "4",
        "orbit_determination_date": "2019-10-20 06:04:05",
        "first_observation_date": "2019-09-25",
        "last_observation_date": "2019-10-01",
        "data_arc_in_days": 6,
        "observations_used": 33,
        "orbit_uncertainty": "8",
        "minimum_orbit_intersection": ".0365087",
        "jupiter_tisserand_invariant": "3.968",
        "epoch_osculation": "2458752.5",
        "eccentricity": ".4732858091341693",
        "semi_major_axis": "1.742195249760437",
        "inclination": "15.75126103241776",
        "ascending_node_longitude": "6.299454000787446",
        "orbital_period": "839.9311051339268",
        "perihelion_distance": ".9176389613078623",
        "perihelion_argument": "53.23774658805721",
        "aphelion_distance": "2.566751538213011",
        "perihelion_time": "2458797.447117290999",
        "mean_anomaly": "340.735369691804",
        "mean_motion": ".4286065818964974",
        "equinox": "J2000",
        "orbit_class": {
            "orbit_class_type": "APO",
            "orbit_class_description": "Near-Earth asteroid orbits which cross the Earth’s orbit similar to that of 1862 Apollo",
            "orbit_class_range": "a (semi-major axis) > 1.0 AU; q (perihelion) < 1.017 AU"
        }
    },
    "is_sentry_object": false
}